{
"type": "FeatureCollection",
"name": "Coal_Fields_in_Pennsylvania_%E2%80%93_Semi-Anthracite",
"crs": { "type": "name", "properties": { "name": "urn:ogc:def:crs:OGC:1.3:CRS84" } },
"features": [
{ "type": "Feature", "properties": { "OBJECTID": 26, "Coal_Field": "Southern Anthracite", "Coal_Type": "Semi-Anthracite", "Status": "Final", "Feature_Source": "Map 1", "Comp_Scale": 250000, "Shape_Length": 201564.07127541199, "Shape_Area": 318540685.15266901 }, "geometry": { "type": "MultiPolygon", "coordinates": [ [ [ [ -76.911921194214386, 40.390619632763496 ], [ -76.888405775291943, 40.395835630602129 ], [ -76.878017353497128, 40.398765003354427 ], [ -76.873528632682934, 40.400088052832693 ], [ -76.846625417809548, 40.40908837873063 ], [ -76.841236910875764, 40.410455380510932 ], [ -76.831438368811078, 40.412897480683469 ], [ -76.824309325794545, 40.414473384866511 ], [ -76.820157604126848, 40.414976505944594 ], [ -76.812439147240326, 40.416833721714838 ], [ -76.802994299428448, 40.418424183317065 ], [ -76.78985170537527, 40.42117632837747 ], [ -76.782394506937919, 40.422464076114615 ], [ -76.770624286652492, 40.424918641571814 ], [ -76.762292558622178, 40.427059927916353 ], [ -76.745405863683018, 40.433360217940979 ], [ -76.741062844727253, 40.434859875931643 ], [ -76.727979563826622, 40.440329372630636 ], [ -76.723817589730203, 40.441774539328691 ], [ -76.719053854285718, 40.444164588183384 ], [ -76.709891377585663, 40.446797132285539 ], [ -76.71602023283458, 40.46071069938192 ], [ -76.721837501620257, 40.458052811902469 ], [ -76.733103896959648, 40.454291460749964 ], [ -76.744677807197732, 40.449596949289251 ], [ -76.766680687843532, 40.440745027075664 ], [ -76.769610210835566, 40.439215236960969 ], [ -76.783792627801105, 40.433449288024619 ], [ -76.798525236998657, 40.428589343576242 ], [ -76.80900877012607, 40.425513003528387 ], [ -76.822218986593356, 40.420879232204435 ], [ -76.828097604283798, 40.419320546032594 ], [ -76.840324609198944, 40.414881878605101 ], [ -76.85378870367984, 40.410994091796489 ], [ -76.865545509210506, 40.408061216264926 ], [ -76.871409475117474, 40.40574849460485 ], [ -76.876136123498426, 40.403982530069484 ], [ -76.877726775901451, 40.403453614511719 ], [ -76.8879869028938, 40.400163640667351 ], [ -76.89385893634261, 40.398413689688518 ], [ -76.896307916224018, 40.397825428018656 ], [ -76.902179518600732, 40.396075058295636 ], [ -76.909027717496798, 40.393938609358237 ], [ -76.928484804220503, 40.388759894748077 ], [ -76.93178195931749, 40.387504247355132 ], [ -76.932630787276821, 40.386837579824302 ], [ -76.932247274337925, 40.385995528024729 ], [ -76.930523346265815, 40.385825163592109 ], [ -76.911921194214386, 40.390619632763496 ] ] ], [ [ [ -76.673810920390665, 40.583774880761432 ], [ -76.669772037411505, 40.585077433597732 ], [ -76.665241649596311, 40.585705135959564 ], [ -76.662944074944519, 40.585919010249498 ], [ -76.663129873112155, 40.590404182159645 ], [ -76.66353927321893, 40.600284962316202 ], [ -76.663736205268037, 40.605036841199031 ], [ -76.667456011711778, 40.604105729397006 ], [ -76.673007626648513, 40.602530179739226 ], [ -76.67553142074938, 40.601787827363829 ], [ -76.680572740202493, 40.600685811973044 ], [ -76.684612369685482, 40.599382895606603 ], [ -76.690660941984518, 40.598098254575667 ], [ -76.69973487491616, 40.596074976954355 ], [ -76.710303054289113, 40.593637015980093 ], [ -76.713346251322903, 40.592942991811036 ], [ -76.715421410613772, 40.592195143280307 ], [ -76.720665447298842, 40.590615135287088 ], [ -76.721934205238966, 40.589764859012753 ], [ -76.722728774451525, 40.588518004129654 ], [ -76.72396941891904, 40.588059808019146 ], [ -76.727499438412991, 40.587133775278389 ], [ -76.737075897556522, 40.584920529044474 ], [ -76.742109234414514, 40.584198658799146 ], [ -76.745133772587124, 40.583459137233895 ], [ -76.755987344936145, 40.579723778265276 ], [ -76.758001630179777, 40.579358163619737 ], [ -76.758767580594792, 40.578503170291491 ], [ -76.758520746631277, 40.578213866106474 ], [ -76.757768944016988, 40.578111686741671 ], [ -76.754882930963831, 40.578308125450434 ], [ -76.753253907309585, 40.577785655939152 ], [ -76.749239638032876, 40.577559517975764 ], [ -76.743339619954583, 40.577508330632426 ], [ -76.736177070877176, 40.577924430980417 ], [ -76.735168467703431, 40.578202775863261 ], [ -76.734298425409818, 40.577620765931428 ], [ -76.733450137901045, 40.575603002414653 ], [ -76.732202111392439, 40.57511338397952 ], [ -76.731200799733188, 40.57491311272112 ], [ -76.72015152963121, 40.575006740145277 ], [ -76.715620780351713, 40.575732151767639 ], [ -76.705049656375607, 40.577360271846963 ], [ -76.701600533508142, 40.578691412309738 ], [ -76.699988022525986, 40.579899119909314 ], [ -76.698856271580937, 40.580252350067504 ], [ -76.694974153917272, 40.579374857549737 ], [ -76.692463481440214, 40.579351932276531 ], [ -76.673810920390665, 40.583774880761432 ] ] ] ] } },
{ "type": "Feature", "properties": { "OBJECTID": 27, "Coal_Field": "Western Middle Anthracite", "Coal_Type": "Semi-Anthracite", "Status": "Final", "Feature_Source": "Map 1", "Comp_Scale": 250000, "Shape_Length": 121495.3022713036, "Shape_Area": 414516078.66591299 }, "geometry": { "type": "Polygon", "coordinates": [ [ [ -76.573594137020407, 40.763666162608587 ], [ -76.575049153791284, 40.771269569200022 ], [ -76.574117435006798, 40.776998326190018 ], [ -76.573959328179029, 40.784376735333382 ], [ -76.571630599768298, 40.79234327023169 ], [ -76.570828470644045, 40.793721083590896 ], [ -76.569352015483688, 40.796257020336284 ], [ -76.571880105792289, 40.796443157028229 ], [ -76.575409746212429, 40.796287662395876 ], [ -76.577940303358332, 40.795643293106764 ], [ -76.586530786152593, 40.794198546926211 ], [ -76.592348744670986, 40.792821125075207 ], [ -76.596017367580544, 40.79190058060157 ], [ -76.601452198403095, 40.790806046215152 ], [ -76.611562514904648, 40.788800177969691 ], [ -76.622686095814871, 40.786420406864515 ], [ -76.632801565440559, 40.784029811624038 ], [ -76.641008502421457, 40.782768736377434 ], [ -76.651113309221614, 40.780950788218803 ], [ -76.655155081893554, 40.78022335831816 ], [ -76.660084401505472, 40.779121257894147 ], [ -76.662108325314847, 40.778565977724966 ], [ -76.666146723712032, 40.778029584304086 ], [ -76.670691788560504, 40.777306330513042 ], [ -76.676072575722472, 40.776330129737495 ], [ -76.68031991678761, 40.775297464704011 ], [ -76.683463734385896, 40.774399664251568 ], [ -76.686881580888453, 40.773798324736703 ], [ -76.694563941233227, 40.772740579949222 ], [ -76.698985478288364, 40.77182362339294 ], [ -76.702318244297487, 40.770879769409021 ], [ -76.706877729802045, 40.769754477373894 ], [ -76.710135903012329, 40.768573531069649 ], [ -76.71018760434859, 40.768554791270226 ], [ -76.715102705065291, 40.766773022376753 ], [ -76.719979136582694, 40.7660125451807 ], [ -76.728334194274055, 40.763674551909126 ], [ -76.73017923224721, 40.762886790918444 ], [ -76.73075380117244, 40.762195006601978 ], [ -76.730267762621864, 40.761708278626756 ], [ -76.72921208924727, 40.761591744176563 ], [ -76.724726407770476, 40.761870056224012 ], [ -76.724722296201023, 40.761870311500125 ], [ -76.723919750729578, 40.76192008509954 ], [ -76.723712412627521, 40.761650224143182 ], [ -76.724068449335689, 40.759768258351414 ], [ -76.729957966668124, 40.759571288024354 ], [ -76.730035509516938, 40.759575344281224 ], [ -76.733886813404055, 40.759776763316573 ], [ -76.737756926593974, 40.760152441809986 ], [ -76.739832414786775, 40.760341458950293 ], [ -76.740843374486005, 40.760350295942686 ], [ -76.74084160064514, 40.759866222539742 ], [ -76.741860516110492, 40.758694741172285 ], [ -76.743710114192552, 40.757653472343456 ], [ -76.745035095986751, 40.75708105125625 ], [ -76.745335430695746, 40.756506973805067 ], [ -76.745399533268511, 40.756087085190188 ], [ -76.745402665307083, 40.756066571086606 ], [ -76.745231474776375, 40.755663214583457 ], [ -76.744599904526922, 40.754992306417257 ], [ -76.742915788418671, 40.754489667164762 ], [ -76.74105269349775, 40.754251605768701 ], [ -76.738944199611993, 40.754809863157966 ], [ -76.737602681088148, 40.754798114728551 ], [ -76.734233924047217, 40.753836966318367 ], [ -76.730567531479622, 40.753272339736974 ], [ -76.729136881204909, 40.753259705769317 ], [ -76.727009690383269, 40.753240888660827 ], [ -76.72357054872441, 40.753077299903275 ], [ -76.721705461174878, 40.753240986356374 ], [ -76.720357880268978, 40.753359234788974 ], [ -76.717259772924351, 40.753775188372636 ], [ -76.713752660429719, 40.754231749509287 ], [ -76.711877254191947, 40.754791600729249 ], [ -76.710063152845848, 40.755090582923067 ], [ -76.708291334590186, 40.755201347155641 ], [ -76.706519413242631, 40.755298982146826 ], [ -76.704746899618925, 40.755391335162123 ], [ -76.702974147993828, 40.75549647544441 ], [ -76.701200949442452, 40.75560715038403 ], [ -76.699429910534477, 40.755674366879774 ], [ -76.697670700110919, 40.755491819095397 ], [ -76.69589876586663, 40.755369466479145 ], [ -76.694125605220776, 40.755387345809304 ], [ -76.692352597593086, 40.755483886109538 ], [ -76.690579257812075, 40.755587510553404 ], [ -76.68880534932687, 40.755637257444128 ], [ -76.68703013114839, 40.755572068277949 ], [ -76.685254709789845, 40.755506700771555 ], [ -76.683480259334544, 40.75554211468512 ], [ -76.681706164112214, 40.755611502384369 ], [ -76.679932121618577, 40.755694741598134 ], [ -76.678157857893623, 40.755774436626425 ], [ -76.676382837448372, 40.75582934202184 ], [ -76.674606239719324, 40.755848063981055 ], [ -76.673302720039985, 40.755821639326072 ], [ -76.671997904478403, 40.755918221004933 ], [ -76.670703750225243, 40.755907809388439 ], [ -76.668933593550108, 40.756049815534801 ], [ -76.667160832752714, 40.75612348373793 ], [ -76.665384708358687, 40.756106648825352 ], [ -76.663607923088605, 40.756052600557574 ], [ -76.661834471077029, 40.755975201397284 ], [ -76.66006841805762, 40.755820835739108 ], [ -76.658298889385279, 40.755686859959297 ], [ -76.656537547366284, 40.755838618195561 ], [ -76.654769946416451, 40.755979777452438 ], [ -76.652997628748679, 40.756076421311633 ], [ -76.651226430518548, 40.756191950517099 ], [ -76.649456044507119, 40.756363853327876 ], [ -76.647750118557482, 40.756156793708449 ], [ -76.645972610679763, 40.756083261654865 ], [ -76.644198077576576, 40.755982236350889 ], [ -76.642425372800545, 40.755911379158988 ], [ -76.640654415560064, 40.755996221700364 ], [ -76.638884815668803, 40.756137644410302 ], [ -76.637119265393736, 40.756294174044491 ], [ -76.635344755761764, 40.756394070124919 ], [ -76.633542607216071, 40.756368594337921 ], [ -76.631726078459153, 40.756499443895805 ], [ -76.629947073754209, 40.756553370550861 ], [ -76.628510176931499, 40.756895083669995 ], [ -76.626793917177395, 40.756593962214247 ], [ -76.625053739564535, 40.756330017684448 ], [ -76.622699184181002, 40.756058413618874 ], [ -76.620546522340192, 40.756401061762872 ], [ -76.618767182484959, 40.756438178245737 ], [ -76.61700373512619, 40.756275808502991 ], [ -76.615248313343983, 40.756069928550744 ], [ -76.61350710458764, 40.755801818124418 ], [ -76.611781534553216, 40.755488305039272 ], [ -76.610127591259499, 40.755028065365046 ], [ -76.608363447289065, 40.754863607796345 ], [ -76.606630020025804, 40.754573949906074 ], [ -76.604932305676797, 40.754224516772275 ], [ -76.603189889600458, 40.753960212782204 ], [ -76.601494939638371, 40.753591527386462 ], [ -76.599825288556417, 40.753138029298256 ], [ -76.596679858802489, 40.752383103519961 ], [ -76.593724002976757, 40.7528517064083 ], [ -76.590974424246028, 40.752219250212434 ], [ -76.584752660760756, 40.751869421959576 ], [ -76.58172881584936, 40.752030330862702 ], [ -76.577815561811803, 40.752660772306918 ], [ -76.574660747770722, 40.753107347769806 ], [ -76.570345593148886, 40.753810273823468 ], [ -76.57079574354232, 40.754861628140759 ], [ -76.571576135312398, 40.756684197051946 ], [ -76.572099887971575, 40.757907337827774 ], [ -76.573594137020407, 40.763666162608587 ] ] ] } },
{ "type": "Feature", "properties": { "OBJECTID": 28, "Coal_Field": "Western Northern Anthracite", "Coal_Type": "Semi-Anthracite", "Status": "Final", "Feature_Source": "Map 1", "Comp_Scale": 250000, "Shape_Length": 273157.0397367875, "Shape_Area": 426238260.70473289 }, "geometry": { "type": "MultiPolygon", "coordinates": [ [ [ [ -76.328152056362697, 41.483862920838952 ], [ -76.32836674796178, 41.484048475150601 ], [ -76.329023570726036, 41.484982071696301 ], [ -76.329338566164949, 41.485116360581515 ], [ -76.330084142212741, 41.485386360513509 ], [ -76.330410973851215, 41.485695839719369 ], [ -76.330702634051391, 41.48645256701014 ], [ -76.33113646264357, 41.48753113029332 ], [ -76.331934838427088, 41.487995414076146 ], [ -76.332423233419448, 41.488131831754231 ], [ -76.332915416987376, 41.4880944301418 ], [ -76.333991675415149, 41.487781688677536 ], [ -76.334865652246449, 41.487466447831508 ], [ -76.33557286222738, 41.486844889029435 ], [ -76.337523693160463, 41.484566799931457 ], [ -76.338942880090997, 41.483387260727433 ], [ -76.34028991140238, 41.482577922341278 ], [ -76.341699873462105, 41.481530272854791 ], [ -76.342461446732244, 41.48106146765884 ], [ -76.34330546024934, 41.480789260716136 ], [ -76.348419388045286, 41.479486097894714 ], [ -76.352744849759233, 41.478959383716955 ], [ -76.355990766248297, 41.47847736550159 ], [ -76.358317395106539, 41.47775240523562 ], [ -76.360414160867947, 41.476966688360434 ], [ -76.36228353908146, 41.476004391791705 ], [ -76.364931629410719, 41.474645910312113 ], [ -76.367881502897021, 41.47358065926592 ], [ -76.371210199253937, 41.472809537988937 ], [ -76.373681905167288, 41.472491535568366 ], [ -76.375527760837741, 41.472556279689819 ], [ -76.377827571519731, 41.47274358469101 ], [ -76.378536285710737, 41.472658569803549 ], [ -76.379301079283408, 41.472473193592457 ], [ -76.381535254322259, 41.471285738433885 ], [ -76.383356430907455, 41.47027595780802 ], [ -76.384050746601375, 41.469865187613621 ], [ -76.385000092432108, 41.469554133642532 ], [ -76.38659209185866, 41.469250690995374 ], [ -76.387796457843365, 41.469039331446375 ], [ -76.388862650196387, 41.468957936640692 ], [ -76.39032043774607, 41.468926466283278 ], [ -76.391740821510879, 41.468957038078734 ], [ -76.393098897751344, 41.469227166641552 ], [ -76.394599305592976, 41.469570929602256 ], [ -76.395495706567701, 41.469844284125656 ], [ -76.395546310472923, 41.469860519742952 ], [ -76.395578933429306, 41.469865246143691 ], [ -76.396843511757737, 41.469782708852961 ], [ -76.398107584329324, 41.469724507067724 ], [ -76.399827401799357, 41.46954986969633 ], [ -76.401512316220717, 41.469496569656634 ], [ -76.403972164734569, 41.46954973014406 ], [ -76.405035693076059, 41.469555733312724 ], [ -76.405399096637552, 41.469444645106641 ], [ -76.407787448806175, 41.468254820053332 ], [ -76.409391260948496, 41.46742112167275 ], [ -76.410371448805094, 41.466994160746133 ], [ -76.410705055661623, 41.466858858631028 ], [ -76.41094499970562, 41.466758449856968 ], [ -76.411351119017723, 41.466591544333838 ], [ -76.412360150887082, 41.466335383199578 ], [ -76.413591794812589, 41.466070302285189 ], [ -76.414792054679793, 41.466052003709038 ], [ -76.415648910296113, 41.46606194503385 ], [ -76.416712056351344, 41.466461057582023 ], [ -76.418301591174838, 41.467134934852673 ], [ -76.419267482398581, 41.467231981710334 ], [ -76.420469081501835, 41.467149178991882 ], [ -76.422232901275194, 41.466814995490047 ], [ -76.42318137088624, 41.466535848683179 ], [ -76.424045459517529, 41.466191255654202 ], [ -76.424999816224812, 41.465622071479238 ], [ -76.426524872198115, 41.464382570497641 ], [ -76.427998250038854, 41.463203956030561 ], [ -76.428748699844263, 41.462920324514023 ], [ -76.429301463069251, 41.462804899996755 ], [ -76.429756125856301, 41.462737054128596 ], [ -76.430508146605035, 41.462365459529408 ], [ -76.431039286626671, 41.461728892242469 ], [ -76.431278701676689, 41.461098424320205 ], [ -76.431225806185054, 41.460513315018808 ], [ -76.431035459281986, 41.460078034520883 ], [ -76.430464047423939, 41.459336239895052 ], [ -76.429901374194955, 41.45876897004996 ], [ -76.42910304426681, 41.458224011600464 ], [ -76.428172785401827, 41.457799304494323 ], [ -76.425923400659499, 41.456969747438421 ], [ -76.425341781710259, 41.456914343299708 ], [ -76.424628714234643, 41.456954839788942 ], [ -76.423549683312217, 41.457478199995506 ], [ -76.423028328371046, 41.457642668220466 ], [ -76.422055319092479, 41.457728859871835 ], [ -76.421637025794737, 41.457602259198751 ], [ -76.421319317205217, 41.457306337614924 ], [ -76.42113107970934, 41.457011912466726 ], [ -76.420843752529905, 41.45681375876304 ], [ -76.420325879803187, 41.456807775370955 ], [ -76.41980651545984, 41.456874835209071 ], [ -76.419088185418829, 41.457141231848524 ], [ -76.41799879655936, 41.458031126186256 ], [ -76.41673406384723, 41.459112374689497 ], [ -76.415994584387263, 41.459651748898338 ], [ -76.415467868684573, 41.460005489113733 ], [ -76.41479371407614, 41.460351868558796 ], [ -76.41451390127402, 41.460804317266913 ], [ -76.414176185010305, 41.46056538471877 ], [ -76.413967942336825, 41.460272876336298 ], [ -76.413635157784825, 41.459785528850375 ], [ -76.413049980340318, 41.459069621881838 ], [ -76.412336964273749, 41.458319992737195 ], [ -76.411958711701985, 41.457961039948621 ], [ -76.411582452599887, 41.457505412281563 ], [ -76.41163456823864, 41.457054768448813 ], [ -76.411424359573829, 41.456858929700473 ], [ -76.41112980429952, 41.456597644310428 ], [ -76.410575582699565, 41.45646226451121 ], [ -76.409844712015371, 41.456582682331835 ], [ -76.407906440045565, 41.457075803960706 ], [ -76.405444111607082, 41.458046252922806 ], [ -76.404382596263957, 41.458593008949379 ], [ -76.403872080795622, 41.458735261129711 ], [ -76.403417420252723, 41.458803003293767 ], [ -76.402913810935601, 41.45872286917789 ], [ -76.402161632660267, 41.458471692890626 ], [ -76.401485948834079, 41.458268941212772 ], [ -76.400678780013408, 41.458162061104829 ], [ -76.399612894708028, 41.458235815944377 ], [ -76.398814313709153, 41.458454224832536 ], [ -76.398318103725998, 41.458816016252108 ], [ -76.397784074844409, 41.459230358765147 ], [ -76.397435006311852, 41.459420957900015 ], [ -76.39711820873525, 41.459470855610959 ], [ -76.396995482893601, 41.459324164989404 ], [ -76.396898687767717, 41.459097783402299 ], [ -76.396715959832278, 41.458759533959466 ], [ -76.396340539291685, 41.458159808156282 ], [ -76.395797366856357, 41.45783055952262 ], [ -76.39532150670469, 41.457344122358471 ], [ -76.395035540136561, 41.456865776736635 ], [ -76.394724785715241, 41.456460340023362 ], [ -76.394267616734055, 41.456195012425262 ], [ -76.393794780689404, 41.456035357995397 ], [ -76.393276414756286, 41.456053600912895 ], [ -76.392591647123439, 41.456289066824759 ], [ -76.392000414023101, 41.456696112820644 ], [ -76.390196057808183, 41.458351408575389 ], [ -76.389920622853381, 41.458619887694823 ], [ -76.389625751714192, 41.45878688158561 ], [ -76.389139221385804, 41.45882983568346 ], [ -76.388556602632121, 41.458822942716822 ], [ -76.387196149537786, 41.458855543413868 ], [ -76.387003982362359, 41.458755850050927 ], [ -76.387009081689527, 41.458512367485248 ], [ -76.387273628568892, 41.458247604858443 ], [ -76.387313642099201, 41.457882764177171 ], [ -76.387419408245776, 41.457469994109786 ], [ -76.38739876315509, 41.456909601680273 ], [ -76.387283570263207, 41.456226316181699 ], [ -76.386648992888453, 41.4556099414134 ], [ -76.385520287323544, 41.455408665805855 ], [ -76.384472035177041, 41.455396229923622 ], [ -76.383900441997881, 41.45545556778022 ], [ -76.383151426281771, 41.45566585958133 ], [ -76.381612824579477, 41.456475615077444 ], [ -76.378953719988203, 41.458221820785916 ], [ -76.377478715237856, 41.459080986879265 ], [ -76.376924358117449, 41.459269205890678 ], [ -76.376601194126408, 41.459240994669621 ], [ -76.376445521154622, 41.458946885112809 ], [ -76.376466525382114, 41.458477830404071 ], [ -76.376407505203204, 41.457680008862837 ], [ -76.376112302278713, 41.457026031103219 ], [ -76.375817206423761, 41.456503954443612 ], [ -76.375363155885836, 41.456052037094445 ], [ -76.374281123242952, 41.455657552091942 ], [ -76.373572677817364, 41.455478598297688 ], [ -76.372732715549759, 41.455395483351481 ], [ -76.371791018039758, 41.455530332137961 ], [ -76.37117091263994, 41.455766445420792 ], [ -76.370610373276719, 41.456246811450896 ], [ -76.370342673181938, 41.456657624356026 ], [ -76.37007961508634, 41.456849303806401 ], [ -76.370009195320577, 41.456862031085592 ], [ -76.369591537758808, 41.456965220181125 ], [ -76.369039240735546, 41.457056008621933 ], [ -76.368259865664172, 41.457168422614224 ], [ -76.367641281761152, 41.457331472106098 ], [ -76.367118761955197, 41.457544381097485 ], [ -76.366564581779443, 41.457969056598806 ], [ -76.366178012504406, 41.458486002442626 ], [ -76.366050005185272, 41.459071257426025 ], [ -76.365981612909337, 41.459570295306847 ], [ -76.365803686923002, 41.459785486241728 ], [ -76.365540494614535, 41.459934451172749 ], [ -76.364752299289805, 41.460316159865833 ], [ -76.364026025426227, 41.460503010731834 ], [ -76.363737181933928, 41.460499531560714 ], [ -76.363711998665792, 41.460325362178409 ], [ -76.363877703445098, 41.459327635903747 ], [ -76.363860850653921, 41.458762372260168 ], [ -76.363766599983734, 41.457761512727053 ], [ -76.363571359617481, 41.457433163086748 ], [ -76.36331650391989, 41.457191027778805 ], [ -76.362887887276997, 41.456968529071936 ], [ -76.362370774789355, 41.456831895109694 ], [ -76.36121638914392, 41.456774499892497 ], [ -76.35928403190978, 41.456620758353203 ], [ -76.356843395131378, 41.456646919182191 ], [ -76.354360475956938, 41.457191398321918 ], [ -76.353284818707351, 41.45750434053766 ], [ -76.352380115193228, 41.457928017195151 ], [ -76.352025118715162, 41.458314899849015 ], [ -76.351730216761624, 41.458593845192944 ], [ -76.351409231086464, 41.458742076178012 ], [ -76.350887462174683, 41.45882266322765 ], [ -76.349583028822508, 41.459024124582506 ], [ -76.349205672516774, 41.459106462207259 ], [ -76.348738856701758, 41.459318109348381 ], [ -76.348358221836619, 41.459552536306973 ], [ -76.347748853340221, 41.45967550985791 ], [ -76.347112470917068, 41.459711217847989 ], [ -76.346163989354011, 41.459482316722081 ], [ -76.345788499196573, 41.459477734399478 ], [ -76.345440019635276, 41.459560411848727 ], [ -76.344799416435237, 41.459791654055479 ], [ -76.344188631215459, 41.459979790323409 ], [ -76.343755568713192, 41.460021613926351 ], [ -76.342049807780398, 41.460018835172548 ], [ -76.338922808832507, 41.460328253827427 ], [ -76.337213461977399, 41.460546339854872 ], [ -76.335649714904093, 41.460907111314775 ], [ -76.334799546820634, 41.46127732823642 ], [ -76.33413048014863, 41.461486427665605 ], [ -76.333288572897672, 41.46167166058666 ], [ -76.33210193915518, 41.461765707793795 ], [ -76.32766218270929, 41.462645425782576 ], [ -76.325420926234429, 41.463400084741252 ], [ -76.32489480630575, 41.463676099154078 ], [ -76.324512635230363, 41.4639756261071 ], [ -76.323051516764522, 41.466043885699854 ], [ -76.322757412334241, 41.466279301410431 ], [ -76.3223496643907, 41.466426374025289 ], [ -76.321480682793108, 41.46652425243731 ], [ -76.321073407851529, 41.466649593297767 ], [ -76.32083754540497, 41.466863994092236 ], [ -76.320744680424141, 41.467145368429939 ], [ -76.320788618075824, 41.467776172974133 ], [ -76.320772395954222, 41.468514894463425 ], [ -76.320622232286681, 41.468773824791434 ], [ -76.320301125860169, 41.468921966719542 ], [ -76.320040659379785, 41.468940462051656 ], [ -76.318850054490127, 41.469208187425181 ], [ -76.318383550316327, 41.469397980337625 ], [ -76.318088933494735, 41.469655109371608 ], [ -76.317907956838056, 41.470000586125224 ], [ -76.317870939537542, 41.470369586509648 ], [ -76.317999601383036, 41.471088378923405 ], [ -76.318320416077029, 41.471439356812489 ], [ -76.319069655330182, 41.472362209657305 ], [ -76.319343260260155, 41.473061068858215 ], [ -76.319560046510404, 41.473715754822628 ], [ -76.32008579199686, 41.476091191546423 ], [ -76.320195147515136, 41.476375079605212 ], [ -76.321118961905967, 41.477734003942274 ], [ -76.321624287124308, 41.478837912117136 ], [ -76.322003906477065, 41.479548833083065 ], [ -76.322083906022314, 41.479854088232237 ], [ -76.32204595107126, 41.480266543864438 ], [ -76.32206196972183, 41.480853532688187 ], [ -76.322282142160205, 41.481356124261985 ], [ -76.32253216807463, 41.481815619772178 ], [ -76.322841413598454, 41.482210650469945 ], [ -76.323239890159414, 41.482449801364652 ], [ -76.323613438447111, 41.482589687390728 ], [ -76.32401747635636, 41.482616428530434 ], [ -76.324711400795138, 41.482603295094385 ], [ -76.324928637271483, 41.482731411079065 ], [ -76.324997414264985, 41.483108846479439 ], [ -76.325065602159981, 41.483585668507892 ], [ -76.325136576276151, 41.484303737002513 ], [ -76.325275811959031, 41.484544524093728 ], [ -76.325501683543195, 41.48470822779008 ], [ -76.325905784668393, 41.484813120426033 ], [ -76.326280942056457, 41.484839497603993 ], [ -76.326657524350779, 41.484800691185754 ], [ -76.326921380718659, 41.484630091082046 ], [ -76.327250629273152, 41.484112570913091 ], [ -76.327457642772032, 41.483897801020127 ], [ -76.32767987571016, 41.48375032002064 ], [ -76.327952171235466, 41.483751784485506 ], [ -76.328152056362697, 41.483862920838952 ] ] ], [ [ [ -76.239184731640123, 41.49805171877226 ], [ -76.23995133849499, 41.498287198346418 ], [ -76.240475527126037, 41.498636035890343 ], [ -76.240967995117444, 41.499100868438653 ], [ -76.24162214184939, 41.500083650993496 ], [ -76.242656945054136, 41.501474345900789 ], [ -76.243520815525002, 41.502281863650651 ], [ -76.244480071571928, 41.502897897860201 ], [ -76.245007298097562, 41.503230219521036 ], [ -76.245787804707064, 41.503481700419272 ], [ -76.246171993064863, 41.503522912815534 ], [ -76.246735719757112, 41.503433769684385 ], [ -76.247224252186271, 41.5031264955797 ], [ -76.247555422577804, 41.502684463861321 ], [ -76.247740699400453, 41.501339209751478 ], [ -76.247760755715206, 41.500083794648418 ], [ -76.248005288771836, 41.499384103524477 ], [ -76.248489066965988, 41.498667990318282 ], [ -76.248970057169984, 41.498132265158354 ], [ -76.249374588321103, 41.497785243142054 ], [ -76.250479498696478, 41.497253098246169 ], [ -76.251995099488084, 41.497137428641913 ], [ -76.252524876154723, 41.496959894760842 ], [ -76.252987611211736, 41.496649750267956 ], [ -76.254438590075381, 41.496036287046508 ], [ -76.255057906887814, 41.495864374423249 ], [ -76.255810998443266, 41.495790648351267 ], [ -76.257145340218841, 41.495676235939627 ], [ -76.258317196342773, 41.495006405730017 ], [ -76.259203301389476, 41.494704095673512 ], [ -76.260007925685457, 41.49238910097683 ], [ -76.26073380079805, 41.490985860389536 ], [ -76.260979898590463, 41.490337059350125 ], [ -76.26099830331124, 41.489533179040151 ], [ -76.260931514076958, 41.488662997821244 ], [ -76.260662956952459, 41.487768472071423 ], [ -76.260099983455021, 41.487109193755089 ], [ -76.259504548907699, 41.486768715235932 ], [ -76.258532187514732, 41.486154360735625 ], [ -76.258273135092054, 41.486107536339837 ], [ -76.258010095351693, 41.48623452257565 ], [ -76.257772459959241, 41.486513969137683 ], [ -76.257765979637355, 41.486796411847735 ], [ -76.257561377438904, 41.486945917660549 ], [ -76.257103519525046, 41.487316907200416 ], [ -76.25702754895255, 41.487772793596193 ], [ -76.257168835614721, 41.488519092801653 ], [ -76.257111814774817, 41.488852552333746 ], [ -76.256965340325038, 41.488937583016622 ], [ -76.256733675887205, 41.48895630797545 ], [ -76.256606799224357, 41.488816710436261 ], [ -76.255905969419018, 41.488324026208431 ], [ -76.255359196409813, 41.487989358984748 ], [ -76.254702452551456, 41.487865049579369 ], [ -76.254301028218151, 41.48790325701281 ], [ -76.253851183899783, 41.488027777675889 ], [ -76.253228318651523, 41.488309340911997 ], [ -76.252567848332092, 41.488816635761637 ], [ -76.2519679008807, 41.489509516992527 ], [ -76.251583325946697, 41.490292745271368 ], [ -76.25124396346871, 41.490832539770615 ], [ -76.251022061220283, 41.490968382085526 ], [ -76.250790387921796, 41.490987096106096 ], [ -76.250548038102451, 41.490939333210349 ], [ -76.250091212448865, 41.490701650488553 ], [ -76.249562188294377, 41.490350849719057 ], [ -76.248981253667338, 41.489839804697056 ], [ -76.248526598093605, 41.489237671712111 ], [ -76.247563756465112, 41.488791505594044 ], [ -76.246922079121504, 41.488485024496775 ], [ -76.246408575493689, 41.487991839772519 ], [ -76.246103539268674, 41.487481618817 ], [ -76.245846463575589, 41.486682366449621 ], [ -76.245624649440259, 41.485926871072557 ], [ -76.245303824743331, 41.485211868196124 ], [ -76.244625422714549, 41.484792354674568 ], [ -76.243835403232765, 41.48481325640914 ], [ -76.243360749782497, 41.48507804337244 ], [ -76.243062473911621, 41.485507738284745 ], [ -76.242907055600526, 41.485993504078074 ], [ -76.242896384509962, 41.486454065317055 ], [ -76.243204335855452, 41.487162698129666 ], [ -76.243801171222231, 41.487848013485838 ], [ -76.244338754656567, 41.488441233874198 ], [ -76.244720898444086, 41.489041806314297 ], [ -76.244667523801937, 41.489636678061913 ], [ -76.244409091349809, 41.490020923284789 ], [ -76.243975827537113, 41.49043164921158 ], [ -76.243394304773389, 41.490656271952979 ], [ -76.242661646414803, 41.490742009562766 ], [ -76.241724565896305, 41.49070239688664 ], [ -76.240683097641394, 41.4904020899221 ], [ -76.239556551001428, 41.489718595545334 ], [ -76.238814060620641, 41.488800971854616 ], [ -76.238360993189062, 41.488333081354874 ], [ -76.237689017956541, 41.487997899552923 ], [ -76.236711970809964, 41.487715833698417 ], [ -76.235718895455676, 41.487457387158919 ], [ -76.23532445443, 41.487370895055818 ], [ -76.235148087449105, 41.487205972635437 ], [ -76.234960965264705, 41.486457090655485 ], [ -76.234405996375173, 41.485733152069614 ], [ -76.233752425615194, 41.485151236204096 ], [ -76.23416023827869, 41.484010002110544 ], [ -76.23439846177709, 41.482474125783355 ], [ -76.234535952673966, 41.481671914486768 ], [ -76.234396325579496, 41.48086605295974 ], [ -76.234094883699512, 41.480206952591026 ], [ -76.233565642073088, 41.479127946938895 ], [ -76.232718342461155, 41.478104303304839 ], [ -76.23225442138353, 41.477621725909394 ], [ -76.232148859369943, 41.477054540127448 ], [ -76.232806290435775, 41.476682524765756 ], [ -76.2336662849075, 41.476508750870025 ], [ -76.234544089658726, 41.476222529211135 ], [ -76.235498655813842, 41.475643045652916 ], [ -76.23591214144173, 41.475287620060918 ], [ -76.23608856049124, 41.474862512800861 ], [ -76.236208625273676, 41.474457718445827 ], [ -76.236141230183776, 41.473950593016298 ], [ -76.235835646197032, 41.473470114174333 ], [ -76.235369836189605, 41.472989813385759 ], [ -76.233415485445121, 41.471979086998616 ], [ -76.232936162792484, 41.471553637432066 ], [ -76.232749404227903, 41.470948723998013 ], [ -76.233012694882106, 41.470574179654541 ], [ -76.233335589845467, 41.47031042802724 ], [ -76.234218165707119, 41.469815819604136 ], [ -76.234597602536894, 41.46932482388479 ], [ -76.234675043198408, 41.468898696587104 ], [ -76.234567393433309, 41.468420819774273 ], [ -76.23415137801102, 41.468029008584772 ], [ -76.231619129523565, 41.467244077160437 ], [ -76.228438142472086, 41.466404322250959 ], [ -76.227717958151572, 41.46608083780356 ], [ -76.226494839723685, 41.465419681198071 ], [ -76.224534974791197, 41.463673798847296 ], [ -76.224110504370586, 41.463547818571037 ], [ -76.223715432011687, 41.463512800274437 ], [ -76.223296810907556, 41.463657378214869 ], [ -76.223110605244457, 41.463981235083516 ], [ -76.222995960020953, 41.464298355585001 ], [ -76.222975114657345, 41.46469412688635 ], [ -76.223454714994318, 41.466189425625643 ], [ -76.223415756385464, 41.466509058823938 ], [ -76.222532532374103, 41.466683426117505 ], [ -76.222295363388071, 41.466656790187159 ], [ -76.222099959249945, 41.466558568739863 ], [ -76.221795212972154, 41.46604828294619 ], [ -76.221350853894364, 41.465451840918988 ], [ -76.220537716535105, 41.464790633733983 ], [ -76.219181151196537, 41.464257692156025 ], [ -76.218655548823719, 41.46362739635839 ], [ -76.218233099391298, 41.463592524836713 ], [ -76.217771194754192, 41.463761369262293 ], [ -76.21709252776418, 41.464148201578226 ], [ -76.216417161717828, 41.464100675935967 ], [ -76.215938026255785, 41.46427296130976 ], [ -76.215731018872148, 41.464657325126311 ], [ -76.215544986007899, 41.465130860850373 ], [ -76.215312219379385, 41.466374167417918 ], [ -76.215082052202561, 41.466967300120118 ], [ -76.21481650173618, 41.467532859473245 ], [ -76.21398614603666, 41.46760307881565 ], [ -76.212624639295939, 41.467474393549772 ], [ -76.211504066294125, 41.466796821095897 ], [ -76.210900622236068, 41.466349761332289 ], [ -76.210436946128766, 41.465867099526676 ], [ -76.210230433418886, 41.465218421682891 ], [ -76.210537677418301, 41.463344063205589 ], [ -76.210394257992846, 41.462650427963773 ], [ -76.209998430847506, 41.461975246495008 ], [ -76.209592041988003, 41.461418764754939 ], [ -76.209156529872473, 41.461319006815813 ], [ -76.208363088844479, 41.461491643694799 ], [ -76.207714365233699, 41.461872992386631 ], [ -76.20671226770726, 41.4626606632403 ], [ -76.206057909033731, 41.46342737054421 ], [ -76.205968829874536, 41.463960953597812 ], [ -76.205909480932618, 41.464793961407807 ], [ -76.206095383588263, 41.465864421799125 ], [ -76.206383039527992, 41.466527477725698 ], [ -76.206539330914978, 41.467231977861402 ], [ -76.206426896218929, 41.468017000528228 ], [ -76.206018693747453, 41.469175892538587 ], [ -76.205493597631317, 41.470053800435544 ], [ -76.204891082774282, 41.471004034652665 ], [ -76.204916729568794, 41.471366664881735 ], [ -76.205243056516537, 41.471757136412243 ], [ -76.205866456734384, 41.472049953251648 ], [ -76.206950478806874, 41.472412156910174 ], [ -76.208168920592868, 41.472891109788975 ], [ -76.20954047990891, 41.473676181326432 ], [ -76.211215953397328, 41.474781344657416 ], [ -76.21156977534821, 41.47506248475338 ], [ -76.211238497037883, 41.475354279836012 ], [ -76.209955316018693, 41.475877321889506 ], [ -76.209320988743841, 41.476215141770346 ], [ -76.208780431079617, 41.476419161862353 ], [ -76.207968771019225, 41.476465036297562 ], [ -76.207256955073333, 41.476425715978408 ], [ -76.206265226491936, 41.476501752843433 ], [ -76.205166789538524, 41.476888080467511 ], [ -76.204346783493023, 41.477250241333685 ], [ -76.20362081333775, 41.477806283264933 ], [ -76.20282940160844, 41.479006567467444 ], [ -76.202035908264833, 41.47951213141819 ], [ -76.201379968407167, 41.479847024484613 ], [ -76.20050469065049, 41.480623108282082 ], [ -76.200107404025729, 41.480677315853086 ], [ -76.199792126741201, 41.480613510986522 ], [ -76.199520692757972, 41.480371625055867 ], [ -76.19905062150282, 41.480156840335546 ], [ -76.198511746928645, 41.480238365692358 ], [ -76.197660829067189, 41.480316770459126 ], [ -76.195800967303953, 41.480261885230938 ], [ -76.195121542745184, 41.480460232120542 ], [ -76.194680444821444, 41.480752980915938 ], [ -76.194463951577617, 41.481126870194537 ], [ -76.194384826915126, 41.481523228640725 ], [ -76.194445497293941, 41.481898650014053 ], [ -76.194680887125102, 41.482390810996542 ], [ -76.195194494435967, 41.482777306922713 ], [ -76.196207040709609, 41.483155893981511 ], [ -76.197106196636113, 41.483229249655231 ], [ -76.197909338936711, 41.483178868927283 ], [ -76.198785251980027, 41.482982230327885 ], [ -76.199423584092571, 41.483027381216559 ], [ -76.199922673567869, 41.483444238282523 ], [ -76.200345383868537, 41.483985945884989 ], [ -76.200527019742907, 41.484673299448815 ], [ -76.200591307326121, 41.485299515700618 ], [ -76.200488726101526, 41.486280827764482 ], [ -76.200318929640815, 41.488540148448671 ], [ -76.200464485743922, 41.488960574273833 ], [ -76.20085189755703, 41.489323133524792 ], [ -76.201436567034179, 41.48971812566694 ], [ -76.202465685856012, 41.490016594883038 ], [ -76.206436554040124, 41.490976450824164 ], [ -76.207454683325565, 41.491466561157004 ], [ -76.208312335215339, 41.492043846994335 ], [ -76.209030633569995, 41.492917199393389 ], [ -76.209544082857661, 41.493549272903905 ], [ -76.210127433654677, 41.494003761403107 ], [ -76.210855709709961, 41.494294674368668 ], [ -76.211516978878208, 41.494458918677843 ], [ -76.212880245235525, 41.494605442989325 ], [ -76.213746287145653, 41.495064604377156 ], [ -76.214653007036432, 41.496922977488701 ], [ -76.215201043876391, 41.497198294934051 ], [ -76.216057845366521, 41.497661109311814 ], [ -76.216485643688856, 41.49791135244952 ], [ -76.216612484900679, 41.498279853569969 ], [ -76.216299026992587, 41.498927785451258 ], [ -76.215932327523092, 41.499534247954934 ], [ -76.215665088079476, 41.500083691719873 ], [ -76.21558765312875, 41.500488677589061 ], [ -76.215531950128039, 41.50104726745711 ], [ -76.215475869301272, 41.501621832056188 ], [ -76.215557101750292, 41.501782723984078 ], [ -76.215723716756216, 41.501928774224822 ], [ -76.216297122647745, 41.501952400456112 ], [ -76.217002558508952, 41.501786012210403 ], [ -76.217969408857513, 41.501351422934334 ], [ -76.219384396020146, 41.500842885529089 ], [ -76.220685619739257, 41.500474639036298 ], [ -76.221585639701587, 41.500344776146875 ], [ -76.222522176488553, 41.500293289308736 ], [ -76.223581338395221, 41.500451173432914 ], [ -76.224364243455199, 41.500605385783622 ], [ -76.224896640534965, 41.500564500342371 ], [ -76.225542786385745, 41.500205502143707 ], [ -76.225657079863225, 41.500083861179384 ], [ -76.225924913493813, 41.499805656584478 ], [ -76.226451565346721, 41.499372080222805 ], [ -76.227039011868399, 41.498887036537624 ], [ -76.22738832118219, 41.498391371966086 ], [ -76.22760802308305, 41.497916393714682 ], [ -76.22762952215011, 41.496998240655529 ], [ -76.227598227225513, 41.496213794763563 ], [ -76.227292810106718, 41.494835830639467 ], [ -76.22681271318632, 41.49328381226119 ], [ -76.226428905377091, 41.492285623790096 ], [ -76.225784551642263, 41.49117571158726 ], [ -76.225622454140236, 41.490738675974953 ], [ -76.225630074184224, 41.490413577968617 ], [ -76.226049939792745, 41.490021845302515 ], [ -76.226638838010658, 41.489895236436261 ], [ -76.227361305320585, 41.490001870651575 ], [ -76.228165588803179, 41.490856278965659 ], [ -76.229148056056431, 41.492161055058247 ], [ -76.229899954013661, 41.493134231092753 ], [ -76.230483697985449, 41.494095709824954 ], [ -76.231310191180455, 41.495788453660019 ], [ -76.23194389239751, 41.496615039369509 ], [ -76.23266377688725, 41.497327669892584 ], [ -76.233278143187221, 41.497737234379755 ], [ -76.234053129237779, 41.497952003326716 ], [ -76.23519429500071, 41.498021580384041 ], [ -76.236183338292236, 41.4980121387281 ], [ -76.238486825173382, 41.49800604240226 ], [ -76.239184731640123, 41.49805171877226 ] ] ], [ [ [ -76.533387010874677, 41.481800206268879 ], [ -76.534748836540075, 41.483885701983922 ], [ -76.535396131607513, 41.48470826967511 ], [ -76.536156398578896, 41.485113234770942 ], [ -76.536776774341618, 41.485300206543272 ], [ -76.537163981550322, 41.485123864389976 ], [ -76.537511008481317, 41.484509185377959 ], [ -76.537727244922579, 41.483951442026573 ], [ -76.538065498853271, 41.482491028318101 ], [ -76.538963295262519, 41.48140073520365 ], [ -76.539303045648396, 41.481068754767826 ], [ -76.539882800766108, 41.480858344122993 ], [ -76.540556492384297, 41.480757173034768 ], [ -76.541564680557883, 41.480731684801754 ], [ -76.542487787667113, 41.481044982901267 ], [ -76.543045269926807, 41.48110808512277 ], [ -76.543797756352632, 41.480971899519751 ], [ -76.544645686191288, 41.480616902670455 ], [ -76.545868459589599, 41.479939095556837 ], [ -76.547703761835422, 41.478844885928787 ], [ -76.549663941790598, 41.476935255319667 ], [ -76.550473759869817, 41.475802652723381 ], [ -76.551455602992704, 41.475278269004129 ], [ -76.551881955948033, 41.47477256672515 ], [ -76.553167178307064, 41.472476468141899 ], [ -76.553892852522694, 41.471258619556757 ], [ -76.553941477487541, 41.47083010815718 ], [ -76.553907501749293, 41.470462026298755 ], [ -76.553749064462465, 41.470215225871627 ], [ -76.553468421471905, 41.469967154127126 ], [ -76.552777602825429, 41.469868033899857 ], [ -76.552000801162905, 41.470013166269432 ], [ -76.551630791620866, 41.470193176880422 ], [ -76.551091622952171, 41.470708507561028 ], [ -76.550755000952776, 41.471287236472428 ], [ -76.550478734879619, 41.471568662598685 ], [ -76.550137733164433, 41.471617884632629 ], [ -76.549815795889543, 41.471400017206776 ], [ -76.549101767540861, 41.470350666201938 ], [ -76.548462441215761, 41.4696698210157 ], [ -76.548033027320287, 41.469398616450448 ], [ -76.547418608583371, 41.46883152229433 ], [ -76.547021889239531, 41.46872819593662 ], [ -76.545786369453694, 41.468967666684399 ], [ -76.544917877468023, 41.469663385233261 ], [ -76.544279685235054, 41.47073402567873 ], [ -76.543959941281926, 41.470787176821318 ], [ -76.543658682979782, 41.470554188719284 ], [ -76.543530027714269, 41.469802057959342 ], [ -76.543538551747261, 41.469342487103816 ], [ -76.543467877016965, 41.468759507504146 ], [ -76.543108084970257, 41.468388004661918 ], [ -76.542580807764381, 41.468259894354048 ], [ -76.541030612263398, 41.468366188930872 ], [ -76.539501334374876, 41.468209400498729 ], [ -76.53863239901608, 41.467760353093766 ], [ -76.53786262745281, 41.467064431295071 ], [ -76.537147505668287, 41.466854396586953 ], [ -76.536616824245002, 41.466910089157437 ], [ -76.536273733546125, 41.466737929259885 ], [ -76.536258223967309, 41.466477288843727 ], [ -76.536163535015547, 41.466093240978815 ], [ -76.535738982244197, 41.46592021506271 ], [ -76.535251330086012, 41.465853778942481 ], [ -76.535051098439865, 41.465667799851325 ], [ -76.534574894513938, 41.464988599321018 ], [ -76.534130273530451, 41.46480003726839 ], [ -76.53343610619028, 41.464884629441734 ], [ -76.532861839570771, 41.465093063287092 ], [ -76.532405755919356, 41.465517253309784 ], [ -76.531989247215989, 41.466003149277249 ], [ -76.531854283560193, 41.466644011307835 ], [ -76.531890573507965, 41.466921426623031 ], [ -76.532291600473982, 41.46726275670099 ], [ -76.532420498554956, 41.467639781953352 ], [ -76.532357585654495, 41.468090844589952 ], [ -76.531894435756769, 41.468404036853769 ], [ -76.531775253572732, 41.468728203685103 ], [ -76.531929587163205, 41.469189498594012 ], [ -76.532090484677951, 41.4697056493102 ], [ -76.531876229256696, 41.469863102060394 ], [ -76.531437690078434, 41.469726561784448 ], [ -76.531023546928708, 41.469477171746355 ], [ -76.530561915410189, 41.46911042344648 ], [ -76.530269215932819, 41.46865095541412 ], [ -76.529990395527861, 41.468310915309807 ], [ -76.529427274634187, 41.468036833646948 ], [ -76.528817147277891, 41.467869448706367 ], [ -76.528270966892208, 41.467544451835757 ], [ -76.528099548110006, 41.466959547473145 ], [ -76.527638954405063, 41.466394436237564 ], [ -76.527943939872898, 41.464964477575599 ], [ -76.528299823462007, 41.463358250494217 ], [ -76.528032525881429, 41.462725408818997 ], [ -76.527342603570887, 41.46229807618397 ], [ -76.526654892193307, 41.462142323313934 ], [ -76.526072399640057, 41.462171135132252 ], [ -76.525055080676267, 41.462777671761323 ], [ -76.524542285657418, 41.463380608360332 ], [ -76.524017354782373, 41.463536444722209 ], [ -76.523521115656976, 41.463522945988139 ], [ -76.523040997561793, 41.46356726172656 ], [ -76.522616961392615, 41.463682758934965 ], [ -76.522238183956389, 41.464028718985105 ], [ -76.521374157851383, 41.465032235943411 ], [ -76.5210947124488, 41.465215706364773 ], [ -76.520670711284012, 41.465131144486989 ], [ -76.520352953000256, 41.465174545661654 ], [ -76.519783671855862, 41.465418919760666 ], [ -76.518676945049933, 41.466070193659355 ], [ -76.517379603215943, 41.466979268283509 ], [ -76.516763357682308, 41.467556993752915 ], [ -76.516428190691443, 41.468043705289631 ], [ -76.516218710938858, 41.468347897805984 ], [ -76.516054609557159, 41.468407426776089 ], [ -76.515820303961348, 41.468374172545211 ], [ -76.515691488763821, 41.468219666628244 ], [ -76.515407512739685, 41.4681553304437 ], [ -76.51520558676701, 41.468061232447376 ], [ -76.514937769116443, 41.468168239740912 ], [ -76.514629491887277, 41.468361485777777 ], [ -76.514422909413597, 41.468512486872996 ], [ -76.514283300007619, 41.468826053427321 ], [ -76.514212656315067, 41.469220294814477 ], [ -76.514075452280025, 41.46944382127878 ], [ -76.513774934561908, 41.46951559237182 ], [ -76.513391738310816, 41.469175573642815 ], [ -76.513115914900681, 41.468682304203341 ], [ -76.513128731120972, 41.468008274265834 ], [ -76.512862238886044, 41.467024801244918 ], [ -76.512635387289734, 41.466218937558644 ], [ -76.512439229876065, 41.465702559648811 ], [ -76.512242565091313, 41.465332715674805 ], [ -76.511881221197044, 41.465053031026642 ], [ -76.511529497777943, 41.464869299593481 ], [ -76.510868167812603, 41.464766326696214 ], [ -76.51027523618076, 41.464714647857583 ], [ -76.50972708913848, 41.464784672969479 ], [ -76.509194652003799, 41.464932152979131 ], [ -76.508785626150825, 41.465093778759879 ], [ -76.508366429775137, 41.465427992988346 ], [ -76.508092467006549, 41.466017827955049 ], [ -76.507611859313315, 41.466619543552348 ], [ -76.506987851616742, 41.467421133915167 ], [ -76.506742282284407, 41.467479766856101 ], [ -76.506379776727826, 41.467261341955208 ], [ -76.506218963287139, 41.466844430502604 ], [ -76.505928232063482, 41.466347293529054 ], [ -76.505481481367156, 41.466158978389927 ], [ -76.504730817731371, 41.466140319624152 ], [ -76.504119240240726, 41.46616434211181 ], [ -76.503000998648389, 41.466343826210597 ], [ -76.501639658639107, 41.466879509695936 ], [ -76.500346293021437, 41.467782881551976 ], [ -76.499259037365576, 41.468870826098353 ], [ -76.498798764499824, 41.469538726438188 ], [ -76.498267932762417, 41.47097548801576 ], [ -76.497567333043065, 41.474244492048335 ], [ -76.497191995709585, 41.477681541836994 ], [ -76.49732555688766, 41.478572318406087 ], [ -76.497590423925047, 41.479392919266431 ], [ -76.498105314528203, 41.480164621047898 ], [ -76.498631265229236, 41.480609297964875 ], [ -76.499146531182632, 41.480946216591903 ], [ -76.499720098596313, 41.481266330303541 ], [ -76.500296349479555, 41.481446969261704 ], [ -76.50092165022923, 41.481488637827042 ], [ -76.501043637148584, 41.481777683560352 ], [ -76.500992798469042, 41.48242433757288 ], [ -76.501170504800271, 41.482879261797812 ], [ -76.501561835301004, 41.48325532471204 ], [ -76.502162351374352, 41.483522540894619 ], [ -76.502959345467772, 41.483455049433495 ], [ -76.50353008633985, 41.48308872105811 ], [ -76.503949848213111, 41.482449747338464 ], [ -76.50420604824248, 41.481839645857306 ], [ -76.504556141335897, 41.481311202637499 ], [ -76.505044884928267, 41.480847386450549 ], [ -76.505966793535691, 41.480316081507823 ], [ -76.506727081616873, 41.479997647445103 ], [ -76.50767057433643, 41.479670758163216 ], [ -76.508574030764663, 41.47947820525291 ], [ -76.509353243073008, 41.479045397076149 ], [ -76.509840658031976, 41.478481482432414 ], [ -76.510024376552551, 41.478041386552881 ], [ -76.510295728908105, 41.477741091499212 ], [ -76.511708730976565, 41.477324077280713 ], [ -76.512325660497325, 41.477024278124482 ], [ -76.512843956080744, 41.476448614730216 ], [ -76.513323805881768, 41.475962476086231 ], [ -76.513847561128358, 41.475524838079281 ], [ -76.51431260209597, 41.475390867453513 ], [ -76.514723732048395, 41.475589238469951 ], [ -76.514997013015545, 41.475827234792675 ], [ -76.515031354943744, 41.476164686293529 ], [ -76.51502318245231, 41.476568538426172 ], [ -76.514662814969185, 41.477234303027586 ], [ -76.513821573126904, 41.478216293390815 ], [ -76.513439576261945, 41.478867640646037 ], [ -76.512762074840197, 41.479786927890721 ], [ -76.512588030472742, 41.480367290435765 ], [ -76.512701511649141, 41.480828170243306 ], [ -76.512935726816636, 41.481178727610768 ], [ -76.513383194590958, 41.481442532115231 ], [ -76.51414876810135, 41.481559016946555 ], [ -76.514771786302305, 41.481601794865057 ], [ -76.51587009258391, 41.481352514167867 ], [ -76.516200099736608, 41.481141547779018 ], [ -76.516614498775084, 41.480778264752097 ], [ -76.517446778510845, 41.479717970459284 ], [ -76.518472717094724, 41.478754656415077 ], [ -76.519347875358619, 41.47815057325117 ], [ -76.520095824605846, 41.477626350072512 ], [ -76.520907237363346, 41.47725011244242 ], [ -76.521961676151051, 41.476951608472547 ], [ -76.522352277164458, 41.476594925346284 ], [ -76.522745952324001, 41.476538375006996 ], [ -76.523106828247592, 41.476848663987433 ], [ -76.523511914581661, 41.476975561357392 ], [ -76.524492558689275, 41.476832792809923 ], [ -76.524940115781504, 41.476868204715004 ], [ -76.525276141474635, 41.477257196154603 ], [ -76.525303084881756, 41.479231655904989 ], [ -76.525529649240141, 41.480184031023747 ], [ -76.52581022690741, 41.480432169163763 ], [ -76.526297402994203, 41.480529284589828 ], [ -76.526745562808685, 41.48053405304136 ], [ -76.527130056873759, 41.480725657222045 ], [ -76.527336978341751, 41.481387707004679 ], [ -76.527991853541508, 41.48155962727111 ], [ -76.528561120655638, 41.481503311388515 ], [ -76.52902053557537, 41.481295616156835 ], [ -76.529183190014635, 41.480927678876718 ], [ -76.529246364173815, 41.479733234684957 ], [ -76.529421159852504, 41.479430296702162 ], [ -76.530123230997773, 41.478838671509912 ], [ -76.53041011675144, 41.47851982223699 ], [ -76.530773141537907, 41.478377150877797 ], [ -76.531306416947402, 41.478529322248242 ], [ -76.531624650687235, 41.478903786043453 ], [ -76.531977822529953, 41.479567374124159 ], [ -76.533387010874677, 41.481800206268879 ] ] ], [ [ [ -76.164471839382841, 41.512178757352871 ], [ -76.165196210977044, 41.512907144133607 ], [ -76.166160640365973, 41.513314776371168 ], [ -76.167433023702714, 41.513388623610005 ], [ -76.168867597484677, 41.512957658396374 ], [ -76.170234081353115, 41.512244061035432 ], [ -76.172090077211578, 41.511636901074816 ], [ -76.173634373210334, 41.511426684429992 ], [ -76.175253494075506, 41.511304240963533 ], [ -76.177063541912332, 41.511242230467971 ], [ -76.178986891536141, 41.511268509852549 ], [ -76.181252956337701, 41.511444047278047 ], [ -76.183513153122462, 41.511653728390812 ], [ -76.18464022889269, 41.51159593123851 ], [ -76.18562781908507, 41.511046003242306 ], [ -76.18648012528061, 41.51009795596881 ], [ -76.186999248476127, 41.508747645122824 ], [ -76.187287936198373, 41.507463050554435 ], [ -76.187451076754684, 41.50652464104666 ], [ -76.187562766837033, 41.505079988039107 ], [ -76.187397563883039, 41.503949729721704 ], [ -76.187171529278132, 41.502954576537014 ], [ -76.186592527219403, 41.502101667770617 ], [ -76.185861000437455, 41.501359354291097 ], [ -76.185200338297193, 41.500787009515946 ], [ -76.184563539771958, 41.500209004278638 ], [ -76.184351428294107, 41.500084834872084 ], [ -76.184320480682445, 41.500050423896838 ], [ -76.18361068271652, 41.499500950630825 ], [ -76.182759683229762, 41.499154380637911 ], [ -76.182060473084107, 41.498943549167777 ], [ -76.181234417139834, 41.498932290070726 ], [ -76.180610752228745, 41.499094618868725 ], [ -76.179877453175223, 41.499519466283523 ], [ -76.179255276353587, 41.500084955859535 ], [ -76.178734123252823, 41.500569896624093 ], [ -76.178168133085322, 41.500870194639347 ], [ -76.177491101114683, 41.501140970942956 ], [ -76.176668507577347, 41.501269739177147 ], [ -76.175958298894201, 41.501372035274777 ], [ -76.175398715704844, 41.501412747971223 ], [ -76.174803958713809, 41.501356237448142 ], [ -76.174507422807238, 41.50129617268437 ], [ -76.174361868426146, 41.501154166532636 ], [ -76.174365261359483, 41.501014198336826 ], [ -76.174371368787703, 41.500762257550299 ], [ -76.174491222219217, 41.500427866906342 ], [ -76.174667516025039, 41.500084870567839 ], [ -76.174822334494024, 41.499511337990597 ], [ -76.17527449509663, 41.498832621282162 ], [ -76.175889359541031, 41.497977459471329 ], [ -76.177057469585051, 41.496731684616641 ], [ -76.177773617954244, 41.496071506600622 ], [ -76.177966390592545, 41.495623574226485 ], [ -76.177816645956199, 41.495264186137092 ], [ -76.177426451497382, 41.495020625130934 ], [ -76.177196080251036, 41.494719692478427 ], [ -76.177046341876562, 41.494360303280523 ], [ -76.177254395812696, 41.493946247821725 ], [ -76.177697134308772, 41.493654511725659 ], [ -76.17939503155759, 41.493159493779885 ], [ -76.180663464994097, 41.492378284293196 ], [ -76.181225254910714, 41.491886179470789 ], [ -76.182123585125325, 41.490766837441413 ], [ -76.182577758874658, 41.489998784177253 ], [ -76.182718775833337, 41.489077570243111 ], [ -76.182619369976308, 41.488272194141111 ], [ -76.182272896184628, 41.487662596229193 ], [ -76.181657427973832, 41.486792821172145 ], [ -76.181358810940154, 41.486349186788004 ], [ -76.180816041518014, 41.485865329459827 ], [ -76.180511534248382, 41.485354940187563 ], [ -76.179886008361123, 41.485018842248031 ], [ -76.179338946951091, 41.484713590030537 ], [ -76.178748708589453, 41.484556638953443 ], [ -76.178274360997079, 41.484520382010821 ], [ -76.177491938829135, 41.484122570424148 ], [ -76.17666345959357, 41.483992131006183 ], [ -76.174542521958585, 41.484142269273327 ], [ -76.172841851206741, 41.484207798844842 ], [ -76.171535325935096, 41.484285592919953 ], [ -76.170926871765644, 41.484444736025715 ], [ -76.170384632986043, 41.48488879699417 ], [ -76.170136253433284, 41.485332065964165 ], [ -76.170042612862261, 41.485926351053266 ], [ -76.170187957492146, 41.486464362145718 ], [ -76.171097612439723, 41.489208636215658 ], [ -76.171851708649754, 41.490917826838462 ], [ -76.172061148462575, 41.49250533229494 ], [ -76.171844515314589, 41.493836871767094 ], [ -76.171427900968979, 41.495266800649915 ], [ -76.170922533263763, 41.496232268929418 ], [ -76.170597111071643, 41.497339144874644 ], [ -76.170190874622691, 41.497714342057577 ], [ -76.169912393443553, 41.4978061989559 ], [ -76.169587525726584, 41.4976582023452 ], [ -76.169450982094389, 41.497234072301474 ], [ -76.169623734017236, 41.494859195681464 ], [ -76.169504730748301, 41.493393379504248 ], [ -76.1692002823455, 41.49288296213652 ], [ -76.168186611751892, 41.492446706983671 ], [ -76.167034945425357, 41.492346957853577 ], [ -76.166484262229105, 41.492190488230506 ], [ -76.166210733388311, 41.492037830478353 ], [ -76.166111951953283, 41.491389287586856 ], [ -76.165782753246404, 41.490096334024976 ], [ -76.165308947052011, 41.48908120038076 ], [ -76.164912879832045, 41.488357922536387 ], [ -76.164169225691396, 41.48753414318648 ], [ -76.163541172664438, 41.487190505027407 ], [ -76.162658043942486, 41.486867267249764 ], [ -76.161519273638746, 41.486588349106434 ], [ -76.161369566998857, 41.48620344369985 ], [ -76.161345088892176, 41.484599967864291 ], [ -76.161210577836115, 41.48359315868391 ], [ -76.160819843900384, 41.482654593202533 ], [ -76.160078060639719, 41.48175903132897 ], [ -76.159580820208589, 41.481273610444859 ], [ -76.159074229570706, 41.481170897532429 ], [ -76.15843748078872, 41.481186018979884 ], [ -76.157871911585104, 41.481589588532628 ], [ -76.157583873450065, 41.482032281339691 ], [ -76.15725770376983, 41.482414888512203 ], [ -76.156748893035413, 41.482574368037184 ], [ -76.15601084257861, 41.482827348417615 ], [ -76.155430660245543, 41.48313036526455 ], [ -76.154924206994082, 41.483702214225239 ], [ -76.153749338319841, 41.484986784031861 ], [ -76.153140895321968, 41.485573912763989 ], [ -76.152579337562045, 41.485863903138537 ], [ -76.15184951380887, 41.486147566879268 ], [ -76.151036886191093, 41.486302144238493 ], [ -76.150338590528392, 41.486292437535717 ], [ -76.150084721436315, 41.486150685332738 ], [ -76.149870326557021, 41.485898902489524 ], [ -76.149394586648526, 41.48580935189252 ], [ -76.148951521401216, 41.485886121319766 ], [ -76.148323331992785, 41.486015601214895 ], [ -76.148017946362614, 41.486074830393243 ], [ -76.147848323969583, 41.486087746301088 ], [ -76.147433019541879, 41.486153744707849 ], [ -76.147201507217048, 41.486509430526823 ], [ -76.147086031590106, 41.487321354290827 ], [ -76.147223867375658, 41.488184660666974 ], [ -76.147133126486054, 41.489284057107362 ], [ -76.147368759773187, 41.490053015184536 ], [ -76.147835340598562, 41.490490206800786 ], [ -76.149057186932893, 41.491272890022799 ], [ -76.149619225069088, 41.49171140240707 ], [ -76.150559500781455, 41.492298733498188 ], [ -76.151501558213297, 41.492814300795764 ], [ -76.15251019723766, 41.493211146578155 ], [ -76.153740374161387, 41.493658912532567 ], [ -76.155002380276514, 41.494107107395045 ], [ -76.156169549315976, 41.494530046940113 ], [ -76.157050983973306, 41.494925091746232 ], [ -76.157868215028273, 41.495343167633514 ], [ -76.158620653128224, 41.495808196095275 ], [ -76.15911916419131, 41.496245782579422 ], [ -76.159907534309156, 41.496543810164155 ], [ -76.160379507071198, 41.496765677630179 ], [ -76.160721393328288, 41.496829418681322 ], [ -76.160997525374924, 41.496945084502009 ], [ -76.162021370440712, 41.497180375684259 ], [ -76.162826690456086, 41.497329711026218 ], [ -76.163797442126381, 41.497843298180172 ], [ -76.164203307205469, 41.498178031023066 ], [ -76.164677810526058, 41.498322792630667 ], [ -76.165487192804775, 41.498306296548648 ], [ -76.166073453237473, 41.498531590742246 ], [ -76.166503671014638, 41.498845536887352 ], [ -76.166591788118026, 41.499160141777978 ], [ -76.165970180055851, 41.499612241780127 ], [ -76.164682536819541, 41.500084223699091 ], [ -76.163250754792841, 41.500560716543312 ], [ -76.16234246717147, 41.50093445430938 ], [ -76.160859749602437, 41.501597998548483 ], [ -76.160220153483763, 41.501874742424427 ], [ -76.160049593986756, 41.502695648162934 ], [ -76.160103843849271, 41.503541437847197 ], [ -76.160607593561636, 41.504393439391826 ], [ -76.161178007399982, 41.505584375883899 ], [ -76.161527815880348, 41.506603255323888 ], [ -76.161788943449636, 41.50818426846326 ], [ -76.161844599257293, 41.508973740669319 ], [ -76.162341525406859, 41.510107321344925 ], [ -76.16352104212568, 41.510912295866767 ], [ -76.164471839382841, 41.512178757352871 ] ] ] ] } }
]
}
